OBJECT B                
1 51825U 22019B   25145.93444584  .00017412  00000+0  43856-3 0  9996
2 51825  97.3863 222.4259 0012038 104.3411 255.9172 15.39892917179645
